H1 CPF  1  DGF 2022 03 20 11  5791 larets     NONE      
H2   304206 5557    27944 2022 03 20 00 00 00 2022 03 27 00 00 00    30 1 1  0 0 0
H5  0.0650
H9
10 0 59660  50400.000000  0      -3874013.894       -905654.207      -5846027.266
10 0 59660  50430.000000  0      -4062239.681       -881762.155      -5720819.372
10 0 59660  50460.000000  0      -4246268.520       -856168.246      -5589810.573
10 0 59660  50490.000000  0      -4425907.339       -828916.918      -5453133.050
10 0 59660  50520.000000  0      -4600967.608       -800055.112      -5310924.723
10 0 59660  50550.000000  0      -4771265.542       -769632.204      -5163329.118
10 0 59660  50580.000000  0      -4936622.295       -737699.939      -5010495.237
10 0 59660  50610.000000  0      -5096864.154       -704312.360      -4852577.406
10 0 59660  50640.000000  0      -5251822.724       -669525.727      -4689735.137
10 0 59660  50670.000000  0      -5401335.114       -633398.445      -4522132.967
10 0 59660  50700.000000  0      -5545244.118       -595990.981      -4349940.305
10 0 59660  50730.000000  0      -5683398.383       -557365.776      -4173331.259
10 0 59660  50760.000000  0      -5815652.581       -517587.160      -3992484.469
10 0 59660  50790.000000  0      -5941867.564       -476721.256      -3807582.929
10 0 59660  50820.000000  0      -6061910.520       -434835.894      -3618813.809
10 0 59660  50850.000000  0      -6175655.117       -392000.509      -3426368.264
10 0 59660  50880.000000  0      -6282981.648       -348286.048      -3230441.251
10 0 59660  50910.000000  0      -6383777.159       -303764.870      -3031231.328
10 0 59660  50940.000000  0      -6477935.583       -258510.643      -2828940.464
10 0 59660  50970.000000  0      -6565357.858       -212598.240      -2623773.829
10 0 59660  51000.000000  0      -6645952.043       -166103.635      -2415939.592
10 0 59660  51030.000000  0      -6719633.418       -119103.788      -2205648.710
10 0 59660  51060.000000  0      -6786324.591        -71676.539      -1993114.712
10 0 59660  51090.000000  0      -6845955.579        -23900.494      -1778553.481
10 0 59660  51120.000000  0      -6898463.896         24145.083      -1562183.031
10 0 59660  51150.000000  0      -6943794.623         72380.387      -1344223.281
10 0 59660  51180.000000  0      -6981900.468        120725.185      -1124895.825
10 0 59660  51210.000000  0      -7012741.822        169098.931       -904423.702
10 0 59660  51240.000000  0      -7036286.798        217420.884       -683031.172
10 0 59660  51270.000000  0      -7052511.269        265610.222       -460943.478
10 0 59660  51300.000000  0      -7061398.896        313586.163       -238386.624
10 0 59660  51330.000000  0      -7062941.148        361268.075        -15587.136
10 0 59660  51360.000000  0      -7057137.317        408575.600        207228.169
10 0 59660  51390.000000  0      -7043994.518        455428.765        429832.418
10 0 59660  51420.000000  0      -7023527.683        501748.103        651998.921
10 0 59660  51450.000000  0      -6995759.546        547454.765        873501.403
10 0 59660  51480.000000  0      -6960720.619        592470.634       1094114.243
10 0 59660  51510.000000  0      -6918449.159        636718.443       1313612.705
10 0 59660  51540.000000  0      -6868991.123        680121.883       1531773.176
10 0 59660  51570.000000  0      -6812400.120        722605.719       1748373.393
10 0 59660  51600.000000  0      -6748737.348        764095.897       1963192.684
10 0 59660  51630.000000  0      -6678071.525        804519.656       2176012.186
10 0 59660  51660.000000  0      -6600478.812        843805.635       2386615.081
10 0 59660  51690.000000  0      -6516042.727        881883.972       2594786.814
10 0 59660  51720.000000  0      -6424854.049        918686.416       2800315.321
10 0 59660  51750.000000  0      -6327010.716        954146.424       3002991.244
10 0 59660  51780.000000  0      -6222617.710        988199.256       3202608.151
10 0 59660  51810.000000  0      -6111786.941       1020782.076       3398962.740
10 0 59660  51840.000000  0      -5994637.120       1051834.045       3591855.052
10 0 59660  51870.000000  0      -5871293.628       1081296.408       3781088.672
10 0 59660  51900.000000  0      -5741888.371       1109112.587       3966470.932
10 0 59660  51930.000000  0      -5606559.639       1135228.264       4147813.103
10 0 59660  51960.000000  0      -5465451.948       1159591.463       4324930.590
10 0 59660  51990.000000  0      -5318715.877       1182152.628       4497643.115
10 0 59660  52020.000000  0      -5166507.904       1202864.700       4665774.902
10 0 59660  52050.000000  0      -5008990.234       1221683.187       4829154.847
10 0 59660  52080.000000  0      -4846330.618       1238566.233       4987616.693
10 0 59660  52110.000000  0      -4678702.174       1253474.685       5140999.195
10 0 59660  52140.000000  0      -4506283.196       1266372.154       5289146.281
10 0 59660  52170.000000  0      -4329256.963       1277225.074       5431907.208
10 0 59660  52200.000000  0      -4147811.534       1286002.755       5569136.715
10 0 59660  52230.000000  0      -3962139.552       1292677.437       5700695.165
10 0 59660  52260.000000  0      -3772438.025       1297224.330       5826448.683
10 0 59660  52290.000000  0      -3578908.126       1299621.663       5946269.290
10 0 59660  52320.000000  0      -3381754.967       1299850.718       6060035.034
10 0 59660  52350.000000  0      -3181187.385       1297895.870       6167630.106
10 0 59660  52380.000000  0      -2977417.710       1293744.615       6268944.960
10 0 59660  52410.000000  0      -2770661.539       1287387.602       6363876.413
10 0 59660  52440.000000  0      -2561137.508       1278818.650       6452327.750
10 0 59660  52470.000000  0      -2349067.052       1268034.772       6534208.815
10 0 59660  52500.000000  0      -2134674.176       1255036.185       6609436.101
10 0 59660  52530.000000  0      -1918185.214       1239826.320       6677932.826
10 0 59660  52560.000000  0      -1699828.593       1222411.833       6739629.009
10 0 59660  52590.000000  0      -1479834.589       1202802.600       6794461.539
10 0 59660  52620.000000  0      -1258435.092       1181011.722       6842374.233
10 0 59660  52650.000000  0      -1035863.359       1157055.517       6883317.896
10 0 59660  52680.000000  0       -812353.771       1130953.506       6917250.369
10 0 59660  52710.000000  0       -588141.589       1102728.403       6944136.570
10 0 59660  52740.000000  0       -363462.704       1072406.095       6963948.531
10 0 59660  52770.000000  0       -138553.396       1040015.614       6976665.430
10 0 59660  52800.000000  0         86349.914       1005589.118       6982273.608
10 0 59660  52830.000000  0        311010.915        969161.855       6980766.590
10 0 59660  52860.000000  0        535193.648        930772.131       6972145.095
10 0 59660  52890.000000  0        758662.755        890461.270       6956417.034
10 0 59660  52920.000000  0        981183.726        848273.570       6933597.509
10 0 59660  52950.000000  0       1202523.141        804256.259       6903708.804
10 0 59660  52980.000000  0       1422448.917        758459.440       6866780.363
10 0 59660  53010.000000  0       1640730.551        710936.037       6822848.770
10 0 59660  53040.000000  0       1857139.359        661741.739       6771957.713
10 0 59660  53070.000000  0       2071448.719        610934.933       6714157.957
10 0 59660  53100.000000  0       2283434.308        558576.641       6649507.289
10 0 59660  53130.000000  0       2492874.341        504730.450       6578070.480
10 0 59660  53160.000000  0       2699549.810        449462.434       6499919.216
10 0 59660  53190.000000  0       2903244.717        392841.078       6415132.036
10 0 59660  53220.000000  0       3103746.298        334937.198       6323794.258
10 0 59660  53250.000000  0       3300845.254        275823.854       6225997.899
10 0 59660  53280.000000  0       3494335.971        215576.264       6121841.590
10 0 59660  53310.000000  0       3684016.741        154271.712       6011430.488
10 0 59660  53340.000000  0       3869689.981         91989.451       5894876.173
10 0 59660  53370.000000  0       4051162.441         28810.606       5772296.540
10 0 59660  53400.000000  0       4228245.416        -35181.928       5643815.691
10 0 59660  53430.000000  0       4400754.950        -99903.586       5509563.812
10 0 59660  53460.000000  0       4568512.030       -165268.244       5369677.051
10 0 59660  53490.000000  0       4731342.788       -231188.326       5224297.385
10 0 59660  53520.000000  0       4889078.691       -297574.917       5073572.482
10 0 59660  53550.000000  0       5041556.721       -364337.877       4917655.550
10 0 59660  53580.000000  0       5188619.555       -431385.962       4756705.189
10 0 59660  53610.000000  0       5330115.735       -498626.937       4590885.235
10 0 59660  53640.000000  0       5465899.839       -565967.699       4420364.600
10 0 59660  53670.000000  0       5595832.644       -633314.397       4245317.100
10 0 59660  53700.000000  0       5719781.282       -700572.564       4065921.281
10 0 59660  53730.000000  0       5837619.385       -767647.236       3882360.228
10 0 59660  53760.000000  0       5949227.222       -834443.083       3694821.381
10 0 59660  53790.000000  0       6054491.830       -900864.538       3503496.350
10 0 59660  53820.000000  0       6153307.144       -966815.925       3308580.716
10 0 59660  53850.000000  0       6245574.118      -1032201.592       3110273.821
10 0 59660  53880.000000  0       6331200.826      -1096926.039       2908778.564
10 0 59660  53910.000000  0       6410102.566      -1160894.046       2704301.188
10 0 59660  53940.000000  0       6482201.949      -1224010.807       2497051.067
10 0 59660  53970.000000  0       6547428.986      -1286182.063       2287240.486
99
